NORAD_CAT_ID,OBJECT_NAME,OBJECT_TYPE,EPOCH,MEAN_MOTION,ECCENTRICITY,INCLINATION,RA_OF_ASC_NODE,ARG_OF_PERICENTER,MEAN_ANOMALY,BSTAR,MEAN_MOTION_DOT,MEAN_MOTION_DDOT,TLE_LINE0,TLE_LINE1,TLE_LINE2,SEMIMAJOR_AXIS,PERIOD,APOGEE,PERIGEE,DECAYED
53610.0,STARLINK-4610,PAYLOAD,2024-03-25 00:40:23,15.08875574,0.0001258,53.2156,202.4793,80.7031,279.4103,0.0016574,0.00026214,0.0,0 STARLINK-4610,1 53610U 22104Y   24085.02805486  .00026214  00000-0  16574-2 0  9996,2 53610  53.2156 202.4793 0001258  80.7031 279.4103 15.08875574 87170,6917.772,95.435,540.507,538.766,0.0
53610.0,STARLINK-4610,PAYLOAD,2024-03-25 13:23:29,15.08834081,0.000203,53.217,200.1078,93.4749,266.6475,0.00031219,4.683e-05,0.0,0 STARLINK-4610,1 53610U 22104Y   24085.55798517  .00004683  00000-0  31219-3 0  9990,2 53610  53.2170 200.1078 0002030  93.4749 266.6475 15.08834081 87250,6917.898,95.438,541.168,538.359,0.0
53610.0,STARLINK-4610,PAYLOAD,2024-03-25 16:34:16,15.08848178,0.0002018,53.2171,199.5131,93.2123,266.91,0.0011829,0.00018592,0.0,0 STARLINK-4610,1 53610U 22104Y   24085.69046455  .00018592  00000-0  11829-2 0  9990,2 53610  53.2171 199.5131 0002018  93.2123 266.9100 15.08848178 87274,6917.855,95.437,541.116,538.324,0.0
53610.0,STARLINK-4610,PAYLOAD,2024-03-26 13:14:18,15.08827164,0.0002192,53.2163,195.6445,126.5557,233.5637,0.00047,7.197e-05,0.0,0 STARLINK-4610,1 53610U 22104Y   24086.55159758  .00007197  00000-0  47000-3 0  9997,2 53610  53.2163 195.6445 0002192 126.5557 233.5637 15.08827164 87406,6917.92,95.438,541.301,538.268,0.0
53610.0,STARLINK-4610,PAYLOAD,2024-03-26 14:49:41,15.0883031,0.0001788,53.216,195.3482,86.6167,273.503,0.00070736,0.00010985,0.0,0 STARLINK-4610,1 53610U 22104Y   24086.61784122  .00010985  00000-0  70736-3 0  9994,2 53610  53.2160 195.3482 0001788  86.6167 273.5030 15.08830310 87985,6917.91,95.438,541.012,538.538,0.0
53610.0,STARLINK-4610,PAYLOAD,2024-03-27 14:40:28,15.08868156,0.0001719,53.2151,190.8881,84.8435,275.2754,0.0012847,0.00020233,0.0,0 STARLINK-4610,1 53610U 22104Y   24087.61143550  .00020233  00000-0  12847-2 0  9994,2 53610  53.2151 190.8881 0001719  84.8435 275.2754 15.08868156 88139,6917.794,95.436,540.848,538.47,0.0
53610.0,STARLINK-4610,PAYLOAD,2024-03-28 00:12:46,15.08860455,0.0001661,53.2164,189.1019,93.4177,266.7005,0.00069169,0.00010743,0.0,0 STARLINK-4610,1 53610U 22104Y   24088.00887254  .00010743  00000-0  69169-3 0  9999,2 53610  53.2164 189.1019 0001661  93.4177 266.7005 15.08860455 87623,6917.818,95.436,540.832,538.534,0.0
53610.0,STARLINK-4610,PAYLOAD,2024-03-28 12:55:51,15.08845131,0.0001428,53.2149,186.725,89.092,271.0236,0.00097479,0.00015262,0.0,0 STARLINK-4610,1 53610U 22104Y   24088.53879283  .00015262  00000-0  97479-3 0  9996,2 53610  53.2149 186.7250 0001428  89.0920 271.0236 15.08845131 87702,6917.865,95.437,540.718,538.742,0.0
53610.0,STARLINK-4610,PAYLOAD,2024-03-28 16:06:37,15.0885076,0.0001479,53.2151,186.1296,93.3251,266.791,0.0013078,0.00020593,0.0,0 STARLINK-4610,1 53610U 22104Y   24088.67127157  .00020593  00000-0  13078-2 0  9992,2 53610  53.2151 186.1296 0001479  93.3251 266.7910 15.08850760 88299,6917.848,95.437,540.736,538.689,0.0
53610.0,STARLINK-4610,PAYLOAD,2024-03-29 12:46:38,15.08861745,0.0001366,53.215,182.2629,99.0053,261.1094,0.00097072,0.00015204,0.0,0 STARLINK-4610,1 53610U 22104Y   24089.53238886  .00015204  00000-0  97072-3 0  9990,2 53610  53.2150 182.2629 0001366  99.0053 261.1094 15.08861745 87851,6917.814,95.436,540.624,538.734,0.0
53610.0,STARLINK-4610,PAYLOAD,2024-03-29 15:57:24,15.08867589,0.000138,53.2154,181.6685,99.8359,260.2789,0.0012224,0.00019235,0.0,0 STARLINK-4610,1 53610U 22104Y   24089.66486727  .00019235  00000-0  12224-2 0  9996,2 53610  53.2154 181.6685 0001380  99.8359 260.2789 15.08867589 88442,6917.796,95.436,540.616,538.706,0.0
53610.0,STARLINK-4610,PAYLOAD,2024-03-30 12:37:25,15.08846862,0.0001342,53.2155,177.8015,80.1679,279.9464,0.00037959,5.76e-05,0.0,0 STARLINK-4610,1 53610U 22104Y   24090.52599014  .00005760  00000-0  37959-3 0  9998,2 53610  53.2155 177.8015 0001342  80.1679 279.9464 15.08846862 88003,6917.859,95.437,540.653,538.796,0.0
53610.0,STARLINK-4610,PAYLOAD,2024-03-30 22:09:44,15.08845887,0.0001252,53.2151,176.0189,75.9909,284.1222,0.00048887,7.502e-05,0.0,0 STARLINK-4610,1 53610U 22104Y   24090.92343174  .00007502  00000-0  48887-3 0  9994,2 53610  53.2151 176.0189 0001252  75.9909 284.1222 15.08845887 88635,6917.862,95.437,540.594,538.861,0.0
53610.0,STARLINK-4610,PAYLOAD,2024-03-31 04:31:17,15.08845671,0.0001365,53.215,174.8313,80.1436,279.971,0.00040147,6.108e-05,0.0,0 STARLINK-4610,1 53610U 22104Y   24091.18839235  .00006108  00000-0  40147-3 0  9993,2 53610  53.2150 174.8313 0001365  80.1436 279.9710 15.08845671 88104,6917.863,95.437,540.672,538.784,0.0
53610.0,STARLINK-4610,PAYLOAD,2024-03-31 12:28:12,15.08849949,0.0001428,53.2163,173.3449,85.0614,275.0541,0.00033958,5.122e-05,0.0,0 STARLINK-4610,1 53610U 22104Y   24091.51958909  .00005122  00000-0  33958-3 0  9997,2 53610  53.2163 173.3449 0001428  85.0614 275.0541 15.08849949 88723,6917.85,95.437,540.703,538.727,0.0
53610.0,STARLINK-4610,PAYLOAD,2024-03-31 22:00:31,15.08836783,0.0001449,53.215,171.5591,84.3796,275.7361,0.00021792,3.182e-05,0.0,0 STARLINK-4610,1 53610U 22104Y   24091.91703368  .00003182  00000-0  21792-3 0  9995,2 53610  53.2150 171.5591 0001449  84.3796 275.7361 15.08836783 88788,6917.89,95.438,540.758,538.753,0.0
53610.0,STARLINK-4610,PAYLOAD,2024-04-01 12:19:00,15.08827609,0.0001648,53.2166,168.8862,99.7559,260.3619,-8.4955e-05,-1.639e-05,0.0,0 STARLINK-4610,1 53610U 22104Y   24092.51320074 -.00001639  00000-0 -84955-4 0  9999,2 53610  53.2166 168.8862 0001648  99.7559 260.3619 15.08827609 88304,6917.918,95.438,540.923,538.643,0.0
53610.0,STARLINK-4610,PAYLOAD,2024-04-01 13:54:23,15.08832448,0.0001444,53.2164,168.5871,92.4787,267.6371,6.2874e-06,-1.88e-06,0.0,0 STARLINK-4610,1 53610U 22104Y   24092.57944006 -.00000188  00000-0  62874-5 0  9996,2 53610  53.2164 168.5871 0001444  92.4787 267.6371 15.08832448 88881,6917.903,95.438,540.767,538.77,0.0
53610.0,STARLINK-4610,PAYLOAD,2024-04-01 21:51:19,15.08838467,0.0001447,53.2167,167.1005,91.5019,268.6139,0.00010032,1.309e-05,0.0,0 STARLINK-4610,1 53610U 22104Y   24092.91063844  .00001309  00000-0  10032-3 0  9998,2 53610  53.2167 167.1005 0001447  91.5019 268.6139 15.08838467 88362,6917.885,95.438,540.751,538.749,0.0
53610.0,STARLINK-4610,PAYLOAD,2024-04-02 13:45:10,15.08852414,0.0001353,53.2154,164.1249,88.8765,271.2382,0.0003576,5.41e-05,0.0,0 STARLINK-4610,1 53610U 22104Y   24093.57303332  .00005410  00000-0  35760-3 0  9992,2 53610  53.2154 164.1249 0001353  88.8765 271.2382 15.08852414 89031,6917.842,95.437,540.643,538.771,0.0
53610.0,STARLINK-4610,PAYLOAD,2024-04-02 21:42:05,15.08847102,0.0001371,53.2152,162.6388,94.5045,265.6104,0.00034913,5.274e-05,0.0,0 STARLINK-4610,1 53610U 22104Y   24093.90423609  .00005274  00000-0  34913-3 0  9996,2 53610  53.2152 162.6388 0001371  94.5045 265.6104 15.08847102 89083,6917.859,95.437,540.672,538.775,0.0
53610.0,STARLINK-4610,PAYLOAD,2024-04-03 10:25:11,15.08840418,0.0001374,53.2152,160.2596,95.3692,264.7457,5.0666e-05,5.19e-06,0.0,0 STARLINK-4610,1 53610U 22104Y   24094.43415738  .00000519  00000-0  50666-4 0  9990,2 53610  53.2152 160.2596 0001374  95.3692 264.7457 15.08840418 88597,6917.879,95.438,540.695,538.794,0.0
53610.0,STARLINK-4610,PAYLOAD,2024-04-03 12:00:34,15.08841536,0.0001385,53.2152,159.9623,95.1979,264.9171,7.1061e-05,8.43e-06,0.0,0 STARLINK-4610,1 53610U 22104Y   24094.50039694  .00000843  00000-0  71061-4 0  9993,2 53610  53.2152 159.9623 0001385  95.1979 264.9171 15.08841536 89173,6917.876,95.437,540.699,538.783,0.0
53610.0,STARLINK-4610,PAYLOAD,2024-04-03 21:32:53,15.08840854,0.000135,53.2156,158.176,92.804,267.3106,6.9973e-05,8.26e-06,0.0,0 STARLINK-4610,1 53610U 22104Y   24094.89783715  .00000826  00000-0  69973-4 0  9995,2 53610  53.2156 158.1760 0001350  92.8040 267.3106 15.08840854 89239,6917.878,95.438,540.677,538.809,0.0
53610.0,STARLINK-4610,PAYLOAD,2024-04-04 10:15:58,15.08841859,0.0001302,53.2145,155.7971,92.3951,267.719,6.9178e-05,8.13e-06,0.0,0 STARLINK-4610,1 53610U 22104Y   24095.42775760  .00000813  00000-0  69178-4 0  9999,2 53610  53.2145 155.7971 0001302  92.3951 267.7190 15.08841859 89319,6917.875,95.437,540.64,538.839,0.0
53610.0,STARLINK-4610,PAYLOAD,2024-04-04 21:23:40,15.08845086,0.0001379,53.2153,153.7157,99.1421,260.9727,8.4124e-05,1.051e-05,0.0,0 STARLINK-4610,1 53610U 22104Y   24095.89143575  .00001051  00000-0  84124-4 0  9996,2 53610  53.2153 153.7157 0001379  99.1421 260.9727 15.08845086 89387,6917.865,95.437,540.684,538.776,0.0
53610.0,STARLINK-4610,PAYLOAD,2024-04-05 13:17:31,15.08849964,0.0001371,53.215,150.7423,93.5247,266.5902,0.00020667,3.004e-05,0.0,0 STARLINK-4610,1 53610U 22104Y   24096.55383236  .00003004  00000-0  20667-3 0  9991,2 53610  53.2150 150.7423 0001371  93.5247 266.5902 15.08849964 89480,6917.85,95.437,540.663,538.766,0.0
53610.0,STARLINK-4610,PAYLOAD,2024-04-06 09:57:32,15.08842452,0.0001284,53.2139,146.8779,82.693,277.4208,0.00010848,1.439e-05,0.0,0 STARLINK-4610,1 53610U 22104Y   24097.41495598  .00001439  00000-0  10848-3 0  9992,2 53610  53.2139 146.8779 0001284  82.6930 277.4208 15.08842452 89045,6917.873,95.437,540.626,538.85,0.0
53610.0,STARLINK-4610,PAYLOAD,2024-04-07 09:48:20,15.08797274,0.000161,53.2147,142.4138,104.0196,256.0975,0.00042595,6.49e-05,0.0,0 STARLINK-4610,1 53610U 22104Y   24098.40857245  .00006490  00000-0  42595-3 0  9999,2 53610  53.2147 142.4138 0001610 104.0196 256.0975 15.08797274 89192,6918.011,95.44,540.99,538.762,0.0
53610.0,STARLINK-4610,PAYLOAD,2024-04-07 19:20:38,15.08838531,0.0001446,53.2163,140.6311,89.6167,270.499,-3.5463e-05,-8.52e-06,0.0,0 STARLINK-4610,1 53610U 22104Y   24098.80600305 -.00000852  00000-0 -35463-4 0  9991,2 53610  53.2163 140.6311 0001446  89.6167 270.4990 15.08838531 89252,6917.885,95.438,540.75,538.75,0.0
